
# Worst residual: 14.06 km
# MJD 53574.000000 (2005 Jul 23  0:00)
9O0DC57 = unk P=2.26d, i=25
1 90084U 09710A   05204.49925713  .00000000  00000-0  00000-0 0  4961
2 90084 030.7918 019.8520 7702423 149.3811 280.7534 00.44276688    02

# Worst residual: 8.06 km
# MJD 53575.000000 (2005 Jul 24  0:00)
9O0DC57 = unk P=2.26d, i=25
1 90084U 09710A   05205.49925713  .00000000  00000-0  00000-0 0  4962
2 90084 030.8125 019.8132 7703810 149.4785 080.1336 00.44278988    01

# Worst residual: 9.23 km
# MJD 53576.000000 (2005 Jul 25  0:00)
9O0DC57 = unk P=2.26d, i=25
1 90084U 09710A   05206.49925713  .00000000  00000-0  00000-0 0  4963
2 90084 030.8487 019.7576 7699205 149.5824 239.3024 00.44254607    04

# Worst residual: 12.69 km
# MJD 53577.000000 (2005 Jul 26  0:00)
9O0DC57 = unk P=2.26d, i=25
1 90084U 09710A   05207.49925713  .00000000  00000-0  00000-0 0  4964
2 90084 030.8763 019.7289 7700442 149.6532 038.6062 00.44274903    08

# Worst residual: 4.30 km
# MJD 53578.000000 (2005 Jul 27  0:00)
9O0DC57 = unk P=2.26d, i=25
1 90084U 09710A   05208.49925713  .00000000  00000-0  00000-0 0  4965
2 90084 030.8862 019.7052 7696340 149.6861 198.0757 00.44284230    08

# Worst residual: 6.08 km
# MJD 53579.000000 (2005 Jul 28  0:00)
9O0DC57 = unk P=2.26d, i=25
1 90084U 09710A   05209.49925713  .00000000  00000-0  00000-0 0  4966
2 90084 030.9092 019.6792 7692743 149.7129 357.4188 00.44277508    04

# Worst residual: 4.93 km
# MJD 53580.000000 (2005 Jul 29  0:00)
9O0DC57 = unk P=2.26d, i=25
1 90084U 09710A   05210.49925713  .00000000  00000-0  00000-0 0  4968
2 90084 030.9156 019.6599 7693538 149.7339 156.8342 00.44290637    07

# Worst residual: 4.63 km
# MJD 53581.000000 (2005 Jul 30  0:00)
9O0DC57 = unk P=2.26d, i=25
1 90084U 09710A   05211.49925713  .00000000  00000-0  00000-0 0  4969
2 90084 030.9280 019.6393 7692996 149.7513 316.2768 00.44284512    07

# Worst residual: 3.30 km
# MJD 53582.000000 (2005 Jul 31  0:00)
9O0DC57 = unk P=2.26d, i=25
1 90084U 09710A   05212.49925713  .00000000  00000-0  00000-0 0  4960
2 90084 030.9377 019.6134 7694068 149.7881 115.6473 00.44284163    03

# Worst residual: 6.04 km
# MJD 53583.000000 (2005 Aug  1  0:00)
9O0DC57 = unk P=2.26d, i=25
1 90084U 09710A   05213.49925713  .00000000  00000-0  00000-0 0  4961
2 90084 030.9440 019.5979 7695045 149.8070 275.0705 00.44282053    02

# Worst residual: 4.92 km
# MJD 53584.000000 (2005 Aug  2  0:00)
9O0DC57 = unk P=2.26d, i=25
1 90084U 09710A   05214.49925713  .00000000  00000-0  00000-0 0  4962
2 90084 030.9592 019.5645 7695199 149.8582 074.4612 00.44288473    08

# Worst residual: 7.10 km
# MJD 53585.000000 (2005 Aug  3  0:00)
9O0DC57 = unk P=2.26d, i=25
1 90084U 09710A   05215.49925713  .00000000  00000-0  00000-0 0  4963
2 90084 030.9610 019.5569 7694812 149.8811 233.8259 00.44279320    09

# Worst residual: 12.91 km
# MJD 53586.000000 (2005 Aug  4  0:00)
9O0DC57 = unk P=2.26d, i=25
1 90084U 09710A   05216.49925713  .00000000  00000-0  00000-0 0  4964
2 90084 030.9732 019.5327 7695861 149.9223 033.2279 00.44280987    04

# Worst residual: 4.17 km
# MJD 53587.000000 (2005 Aug  5  0:00)
9O0DC57 = unk P=2.26d, i=25
1 90084U 09710A   05217.49925713  .00000000  00000-0  00000-0 0  4965
2 90084 030.9778 019.5176 7694578 149.9518 192.6141 00.44281204    08

# Worst residual: 15.79 km
# MJD 53588.000000 (2005 Aug  6  0:00)
9O0DC57 = unk P=2.26d, i=25
1 90084U 09710A   05218.49925713  .00000000  00000-0  00000-0 0  4966
2 90084 030.9889 019.4977 7695919 149.9737 352.0442 00.44253740    02

# Worst residual: 1.93 km
# MJD 53589.000000 (2005 Aug  7  0:00)
9O0DC57 = unk P=2.26d, i=25
1 90084U 09710A   05219.49925713  .00000000  00000-0  00000-0 0  4967
2 90084 030.9939 019.4778 7693854 150.0070 151.4415 00.44281802    07

# Worst residual: 14.60 km
# MJD 53590.000000 (2005 Aug  8  0:00)
9O0DC57 = unk P=2.26d, i=25
1 90084U 09710A   05220.49925713  .00000000  00000-0  00000-0 0  4969
2 90084 030.9980 019.4641 7694600 150.0148 310.8976 00.44262434    01

# Worst residual: 10.81 km
# MJD 53591.000000 (2005 Aug  9  0:00)
9O0DC57 = unk P=2.26d, i=25
1 90084U 09710A   05221.49925713  .00000000  00000-0  00000-0 0  4960
2 90084 031.0082 019.4366 7693097 150.0692 110.2547 00.44272982    08

# Worst residual: 5.82 km
# MJD 53592.000000 (2005 Aug 10  0:00)
9O0DC57 = unk P=2.26d, i=25
1 90084U 09710A   05222.49925713  .00000000  00000-0  00000-0 0  4961
2 90084 031.0080 019.4293 7694440 150.0764 269.6815 00.44279859    05

# Worst residual: 10.77 km
# MJD 53593.000000 (2005 Aug 11  0:00)
9O0DC57 = unk P=2.26d, i=25
1 90084U 09710A   05223.49925713  .00000000  00000-0  00000-0 0  4962
2 90084 031.0215 019.3984 7695203 150.1330 069.0460 00.44270740    07

# Worst residual: 2.14 km
# MJD 53594.000000 (2005 Aug 12  0:00)
9O0DC57 = unk P=2.26d, i=25
1 90084U 09710A   05224.49925713  .00000000  00000-0  00000-0 0  4963
2 90084 031.0243 019.3885 7694984 150.1505 228.4522 00.44281421    05

# Worst residual: 4.03 km
# MJD 53595.000000 (2005 Aug 13  0:00)
9O0DC57 = unk P=2.26d, i=25
1 90084U 09710A   05225.49925713  .00000000  00000-0  00000-0 0  4964
2 90084 031.0383 019.3641 7694445 150.1928 027.8213 00.44291289    02

# Worst residual: 2.87 km
# MJD 53596.000000 (2005 Aug 14  0:00)
9O0DC57 = unk P=2.26d, i=25
1 90084U 09710A   05226.49925713  .00000000  00000-0  00000-0 0  4965
2 90084 031.0458 019.3439 7693598 150.2298 187.2203 00.44285803    04

# Worst residual: 6.13 km
# MJD 53597.000000 (2005 Aug 15  0:00)
9O0DC57 = unk P=2.26d, i=25
1 90084U 09710A   05227.49925713  .00000000  00000-0  00000-0 0  4966
2 90084 031.0607 019.3213 7690920 150.2606 346.5823 00.44286901    07

# Worst residual: 1.60 km
# MJD 53598.000000 (2005 Aug 16  0:00)
9O0DC57 = unk P=2.26d, i=25
1 90084U 09710A   05228.49925713  .00000000  00000-0  00000-0 0  4967
2 90084 031.0693 019.2960 7692975 150.2841 145.9757 00.44295116    08

# Worst residual: 9.85 km
# MJD 53599.000000 (2005 Aug 17  0:00)
9O0DC57 = unk P=2.26d, i=25
1 90084U 09710A   05229.49925713  .00000000  00000-0  00000-0 0  4968
2 90084 031.0792 019.2769 7691740 150.2899 305.4717 00.44270573    06

# Worst residual: 9.54 km
# MJD 53600.000000 (2005 Aug 18  0:00)
9O0DC57 = unk P=2.26d, i=25
1 90084U 09710A   05230.49925713  .00000000  00000-0  00000-0 0  4960
2 90084 031.0925 019.2381 7693232 150.3432 104.7855 00.44267456    05

# Worst residual: 13.97 km
# MJD 53601.000000 (2005 Aug 19  0:00)
9O0DC57 = unk P=2.26d, i=25
1 90084U 09710A   05231.49925713  .00000000  00000-0  00000-0 0  4961
2 90084 031.1157 019.2023 7699887 150.3904 264.1103 00.44280594    07

# Worst residual: 11.89 km
# MJD 53602.000000 (2005 Aug 20  0:00)
9O0DC57 = unk P=2.26d, i=25
1 90084U 09710A   05232.49925713  .00000000  00000-0  00000-0 0  4962
2 90084 031.1336 019.1667 7703181 150.4737 063.5117 00.44275555    04
